{
  "type": "FeatureCollection",
  "features": [
    {
      "type": "Feature",
      "properties": {
        "norad_id": 67103,
        "name": "STARLINK-36256",
        "group": "last-30-days",
        "lat": -42.975821446110544,
        "lon": 142.89586261652886,
        "alt_km": 334.6576501691343,
        "timestamp": "2025-12-26T09:30:52.345424+00:00",
        "meta_object_name": "STARLINK-36256",
        "meta_object_id": "2025-299B",
        "meta_epoch": "2025-12-26T04:00:01.998720",
        "meta_mean_motion": 15.80213366,
        "meta_eccentricity": 0.000153,
        "meta_inclination": 42.9968,
        "meta_ra_of_asc_node": 234.381,
        "meta_arg_of_pericenter": 274.4607,
        "meta_mean_anomaly": 127.2568,
        "meta_ephemeris_type": 0,
        "meta_classification_type": "U",
        "meta_norad_cat_id": 67103,
        "meta_element_set_no": 999,
        "meta_rev_at_epoch": 296,
        "meta_bstar": -0.01032,
        "meta_mean_motion_dot": -0.01762421,
        "meta_mean_motion_ddot": 0,
        "tle_line1": "1 67103U 25299B   25360.16668980 -.01762421  00000+0 -10320-1 0  9995",
        "tle_line2": "2 67103  42.9968 234.3810 0001530 274.4607 127.2568 15.80213366  2960"
      },
      "geometry": {
        "type": "Point",
        "coordinates": [
          142.89586261652886,
          -42.975821446110544
        ]
      }
    },
    {
      "type": "Feature",
      "properties": {
        "norad_id": 67104,
        "name": "STARLINK-36258",
        "group": "last-30-days",
        "lat": -42.95836153844924,
        "lon": 144.98298407164995,
        "alt_km": 334.4912274492226,
        "timestamp": "2025-12-26T09:30:52.345434+00:00",
        "meta_object_name": "STARLINK-36258",
        "meta_object_id": "2025-299C",
        "meta_epoch": "2025-12-26T04:00:01.998720",
        "meta_mean_motion": 15.8021985,
        "meta_eccentricity": 0.0001775,
        "meta_inclination": 42.9969,
        "meta_ra_of_asc_node": 234.377,
        "meta_arg_of_pericenter": 283.4499,
        "meta_mean_anomaly": 119.7962,
        "meta_ephemeris_type": 0,
        "meta_classification_type": "U",
        "meta_norad_cat_id": 67104,
        "meta_element_set_no": 999,
        "meta_rev_at_epoch": 296,
        "meta_bstar": -0.010252,
        "meta_mean_motion_dot": -0.01752897,
        "meta_mean_motion_ddot": 0,
        "tle_line1": "1 67104U 25299C   25360.16668980 -.01752897  00000+0 -10252-1 0  9996",
        "tle_line2": "2 67104  42.9969 234.3770 0001775 283.4499 119.7962 15.80219850  2965"
      },
      "geometry": {
        "type": "Point",
        "coordinates": [
          144.98298407164995,
          -42.95836153844924
        ]
      }
    },
    {
      "type": "Feature",
      "properties": {
        "norad_id": 67105,
        "name": "STARLINK-36261",
        "group": "last-30-days",
        "lat": -42.91199955594672,
        "lon": 146.79844625312128,
        "alt_km": 334.42272001069523,
        "timestamp": "2025-12-26T09:30:52.345446+00:00",
        "meta_object_name": "STARLINK-36261",
        "meta_object_id": "2025-299D",
        "meta_epoch": "2025-12-26T04:00:01.998720",
        "meta_mean_motion": 15.80244129,
        "meta_eccentricity": 0.0001737,
        "meta_inclination": 42.9968,
        "meta_ra_of_asc_node": 234.3737,
        "meta_arg_of_pericenter": 279.4425,
        "meta_mean_anomaly": 125.1162,
        "meta_ephemeris_type": 0,
        "meta_classification_type": "U",
        "meta_norad_cat_id": 67105,
        "meta_element_set_no": 999,
        "meta_rev_at_epoch": 296,
        "meta_bstar": -0.010254,
        "meta_mean_motion_dot": -0.0175494,
        "meta_mean_motion_ddot": 0,
        "tle_line1": "1 67105U 25299D   25360.16668980 -.01754940  00000+0 -10254-1 0  9990",
        "tle_line2": "2 67105  42.9968 234.3737 0001737 279.4425 125.1162 15.80244129  2960"
      },
      "geometry": {
        "type": "Point",
        "coordinates": [
          146.79844625312128,
          -42.91199955594672
        ]
      }
    },
    {
      "type": "Feature",
      "properties": {
        "norad_id": 67106,
        "name": "STARLINK-36259",
        "group": "last-30-days",
        "lat": -42.66851795544152,
        "lon": 151.35227262459378,
        "alt_km": 334.27267749861585,
        "timestamp": "2025-12-26T09:30:52.345482+00:00",
        "meta_object_name": "STARLINK-36259",
        "meta_object_id": "2025-299E",
        "meta_epoch": "2025-12-26T04:00:01.998720",
        "meta_mean_motion": 15.80266525,
        "meta_eccentricity": 0.0001845,
        "meta_inclination": 42.9969,
        "meta_ra_of_asc_node": 234.3654,
        "meta_arg_of_pericenter": 272.9055,
        "meta_mean_anomaly": 134.9939,
        "meta_ephemeris_type": 0,
        "meta_classification_type": "U",
        "meta_norad_cat_id": 67106,
        "meta_element_set_no": 999,
        "meta_rev_at_epoch": 296,
        "meta_bstar": -0.010288,
        "meta_mean_motion_dot": -0.01761801,
        "meta_mean_motion_ddot": 0,
        "tle_line1": "1 67106U 25299E   25360.16668980 -.01761801  00000+0 -10288-1 0  9992",
        "tle_line2": "2 67106  42.9969 234.3654 0001845 272.9055 134.9939 15.80266525  2961"
      },
      "geometry": {
        "type": "Point",
        "coordinates": [
          151.35227262459378,
          -42.66851795544152
        ]
      }
    },
    {
      "type": "Feature",
      "properties": {
        "norad_id": 67107,
        "name": "STARLINK-36196",
        "group": "last-30-days",
        "lat": -42.817937438672345,
        "lon": 148.98821115820832,
        "alt_km": 334.46549314937056,
        "timestamp": "2025-12-26T09:30:52.345503+00:00",
        "meta_object_name": "STARLINK-36196",
        "meta_object_id": "2025-299F",
        "meta_epoch": "2025-12-26T04:00:01.998720",
        "meta_mean_motion": 15.80259924,
        "meta_eccentricity": 0.00016,
        "meta_inclination": 42.997,
        "meta_ra_of_asc_node": 234.3701,
        "meta_arg_of_pericenter": 270.0517,
        "meta_mean_anomaly": 136.1038,
        "meta_ephemeris_type": 0,
        "meta_classification_type": "U",
        "meta_norad_cat_id": 67107,
        "meta_element_set_no": 999,
        "meta_rev_at_epoch": 296,
        "meta_bstar": -0.010288,
        "meta_mean_motion_dot": -0.01761005,
        "meta_mean_motion_ddot": 0,
        "tle_line1": "1 67107U 25299F   25360.16668980 -.01761005  00000+0 -10288-1 0  9999",
        "tle_line2": "2 67107  42.9970 234.3701 0001600 270.0517 136.1038 15.80259924  2967"
      },
      "geometry": {
        "type": "Point",
        "coordinates": [
          148.98821115820832,
          -42.817937438672345
        ]
      }
    },
    {
      "type": "Feature",
      "properties": {
        "norad_id": 67108,
        "name": "STARLINK-36208",
        "group": "last-30-days",
        "lat": -42.47214852229077,
        "lon": 153.6886937407143,
        "alt_km": 334.2475106706552,
        "timestamp": "2025-12-26T09:30:52.345520+00:00",
        "meta_object_name": "STARLINK-36208",
        "meta_object_id": "2025-299G",
        "meta_epoch": "2025-12-26T04:00:01.998720",
        "meta_mean_motion": 15.80265272,
        "meta_eccentricity": 0.0001851,
        "meta_inclination": 42.997,
        "meta_ra_of_asc_node": 234.361,
        "meta_arg_of_pericenter": 273.114,
        "meta_mean_anomaly": 136.5208,
        "meta_ephemeris_type": 0,
        "meta_classification_type": "U",
        "meta_norad_cat_id": 67108,
        "meta_element_set_no": 999,
        "meta_rev_at_epoch": 296,
        "meta_bstar": -0.01021,
        "meta_mean_motion_dot": -0.01749851,
        "meta_mean_motion_ddot": 0,
        "tle_line1": "1 67108U 25299G   25360.16668980 -.01749851  00000+0 -10210-1 0  9990",
        "tle_line2": "2 67108  42.9970 234.3610 0001851 273.1140 136.5208 15.80265272  2967"
      },
      "geometry": {
        "type": "Point",
        "coordinates": [
          153.6886937407143,
          -42.47214852229077
        ]
      }
    },
    {
      "type": "Feature",
      "properties": {
        "norad_id": 67109,
        "name": "STARLINK-35764",
        "group": "last-30-days",
        "lat": -42.20988718095368,
        "lon": 156.16831266949586,
        "alt_km": 334.31903940719076,
        "timestamp": "2025-12-26T09:30:52.345531+00:00",
        "meta_object_name": "STARLINK-35764",
        "meta_object_id": "2025-299H",
        "meta_epoch": "2025-12-26T04:00:01.998720",
        "meta_mean_motion": 15.80272503,
        "meta_eccentricity": 0.0001715,
        "meta_inclination": 42.9971,
        "meta_ra_of_asc_node": 234.3562,
        "meta_arg_of_pericenter": 274.4567,
        "meta_mean_anomaly": 137.0313,
        "meta_ephemeris_type": 0,
        "meta_classification_type": "U",
        "meta_norad_cat_id": 67109,
        "meta_element_set_no": 999,
        "meta_rev_at_epoch": 286,
        "meta_bstar": -0.010245,
        "meta_mean_motion_dot": -0.01755551,
        "meta_mean_motion_ddot": 0,
        "tle_line1": "1 67109U 25299H   25360.16668980 -.01755551  00000+0 -10245-1 0  9993",
        "tle_line2": "2 67109  42.9971 234.3562 0001715 274.4567 137.0313 15.80272503  2868"
      },
      "geometry": {
        "type": "Point",
        "coordinates": [
          156.16831266949586,
          -42.20988718095368
        ]
      }
    }
  ]
}